OBJECT_NAME,OBJECT_ID,EPOCH,MEAN_MOTION,ECCENTRICITY,INCLINATION,RA_OF_ASC_NODE,ARG_OF_PERICENTER,MEAN_ANOMALY,EPHEMERIS_TYPE,CLASSIFICATION_TYPE,NORAD_CAT_ID,ELEMENT_SET_NO,REV_AT_EPOCH,BSTAR,MEAN_MOTION_DOT,MEAN_MOTION_DDOT
EUTELSAT 53A,2014-064A,2026-06-03T22:24:48.380256,1.00271854,.00006869,0.0139,282.9863,238.3934,120.2095,0,U,40277,999,4143,0,.11E-5,0
GSAT-16,2014-078A,2026-06-03T22:25:25.819968,1.00271003,.00079406,0.0589,95.0842,348.4790,200.2599,0,U,40332,999,4197,0,.97E-6,0
DIRECTV 14,2014-078B,2026-06-03T21:41:29.126112,1.00271536,.00002215,0.0105,330.7434,173.7364,334.0187,0,U,40333,999,4191,0,-.113E-5,0
YAMAL 401,2014-082A,2026-06-03T22:35:24.863136,1.00272851,.00000466,0.0169,321.2654,80.9920,278.9408,0,U,40345,999,4178,0,0,0
ASTRA 2G,2014-089A,2026-06-03T22:17:43.165248,1.00269306,.0005248,0.0474,1.9916,56.5490,196.4841,0,U,40364,999,4183,0,.162E-5,0
FENGYUN 2G,2014-090A,2026-06-03T19:12:45.107712,1.00279146,.0003441,5.6052,72.9774,153.7233,53.2439,0,U,40367,999,4186,0,-.292E-5,0
MUOS-3,2015-002A,2026-06-03T22:05:20.140800,1.00272310,.00515291,4.4962,43.4674,178.7572,346.0427,0,U,40374,999,4145,0,-.118E-5,0
INMARSAT 5-F2,2015-005A,2026-06-03T20:11:20.921568,1.00272434,.00006553,0.0178,358.3891,188.3532,313.3768,0,U,40384,999,4086,0,-.273E-5,0
ABS-3A,2015-010A,2026-06-03T18:43:30.213120,1.00269620,.00016729,0.0206,67.4432,324.0968,138.5804,0,U,40424,999,4124,0,-.15E-6,0
EUTELSAT 115 WEST B,2015-010B,2026-06-03T21:36:59.557248,1.00272638,.00003806,0.0080,156.2356,132.5008,172.9635,0,U,40425,999,4126,0,-.13E-6,0
EXPRESS-AM7,2015-012A,2026-06-03T20:38:25.651104,1.00272001,.00033553,0.0164,4.9013,73.6463,163.3625,0,U,40505,999,4087,0,.163E-5,0
BEIDOU-3S IGSO-1S,2015-019A,2026-06-03T20:54:21.655872,1.00254002,.00384943,49.2213,295.6213,191.1766,171.6670,0,U,40549,999,4094,0,-.164E-5,0
THOR 7,2015-022A,2026-06-03T22:09:34.733952,1.00270770,.00028312,0.0092,323.3329,108.2147,152.5723,0,U,40613,999,4068,0,0,0
TURKMENALEM52E/MONACOSAT,2015-023A,2026-06-03T22:24:33.403680,1.00271795,.00031887,0.0401,77.2568,353.4125,209.8687,0,U,40617,999,4071,0,.116E-5,0
DIRECTV 15,2015-026A,2026-06-03T21:40:21.734112,1.00268295,.00001421,0.0174,358.7956,40.9515,74.8062,0,U,40663,999,4033,0,-.9E-6,0
SKY MEXICO-1,2015-026B,2026-06-03T21:47:13.575264,1.00271138,.00023759,0.0176,355.1912,95.8520,49.3222,0,U,40664,999,4032,0,-.222E-5,0
METEOSAT-11 (MSG-4),2015-034A,2026-06-03T22:12:26.959392,1.00276165,.00016282,3.1692,71.1826,3.4772,160.1821,0,U,40732,999,708,0,.74E-6,0
STAR ONE C4,2015-034B,2026-06-03T21:49:43.335840,1.00271062,.00026284,0.0216,342.1959,83.6084,83.9979,0,U,40733,999,3988,0,-.253E-5,0
WGS F7 (USA 263),2015-036A,2026-06-03T21:17:01.470912,1.00269653,.00002206,0.0036,355.0968,330.3666,61.1161,0,U,40746,999,3973,0,.29E-6,0
INTELSAT 34 (IS-34),2015-039A,2026-06-03T21:53:57.928992,1.00270144,.00003447,0.0092,337.4190,48.3189,139.6288,0,U,40874,999,3950,0,-.273E-5,0
EUTELSAT 8 WEST B,2015-039B,2026-06-03T22:07:27.438240,1.00272095,.00038392,0.0646,346.0275,83.9161,146.3034,0,U,40875,999,3952,0,-.53E-6,0
GSAT-6,2015-041A,2026-06-03T20:50:34.008288,1.00272158,.00033512,1.8859,82.7528,346.1960,218.5349,0,U,40880,999,3946,0,-.149E-5,0
INMARSAT 5-F3,2015-042A,2026-06-03T19:35:39.343776,1.00273199,.00005307,0.0167,344.9315,90.7082,290.1786,0,U,40882,999,3943,0,.63E-6,0
MUOS-4,2015-044A,2026-06-03T19:05:37.559040,1.00272659,.00598215,4.3048,42.1594,4.5263,207.0014,0,U,40887,999,3942,0,-.83E-6,0
TJS-1,2015-046A,2026-06-03T21:11:17.021760,1.00273535,.00059508,0.2888,85.0192,352.0577,288.1191,0,U,40892,999,3943,0,-.143E-5,0
EXPRESS-AM8,2015-048A,2026-06-03T22:05:42.604800,1.00271826,.00002368,0.0142,284.3694,134.9867,150.4447,0,U,40895,999,3921,0,-.99E-6,0
BEIDOU-3S IGSO-2S,2015-053A,2026-06-03T18:07:21.556704,1.00263064,.00649308,49.2433,258.9424,192.0731,168.8525,0,U,40938,999,3922,0,-.13E-5,0
SKY MUSTER 1 (NBN1A),2015-054A,2026-06-03T21:07:02.428608,1.00270472,.00019432,0.0240,335.5734,112.2881,261.4631,0,U,40940,999,3912,0,0,0
ARSAT 2,2015-054B,2026-06-03T21:46:36.134688,1.00271851,.00022853,0.0376,61.0696,1.4986,75.4587,0,U,40941,999,3917,0,-.213E-5,0
MORELOS 3,2015-056A,2026-06-03T21:37:29.508672,1.00271451,.00018648,3.1760,14.7153,2.8466,86.0686,0,U,40946,999,3915,0,-.32E-6,0
APSTAR-9,2015-059A,2026-06-03T22:50:08.450880,1.00272224,.00020417,0.0169,332.0322,204.8931,200.0361,0,U,40982,999,3898,0,-.253E-5,0
TURKSAT 4B,2015-060A,2026-06-03T22:23:55.963968,1.00275337,.00024642,0.0187,334.0261,98.1515,206.2053,0,U,40984,999,3896,0,.126E-5,0
