EUTELSAT 53A            
1 40277U 14064A   26154.93389329  .00000110  00000+0  00000+0 0  9999
2 40277   0.0139 282.9863 0000686 238.3934 120.2095  1.00271854 41434
GSAT-16                 
1 40332U 14078A   26154.93432662  .00000097  00000+0  00000+0 0  9999
2 40332   0.0589  95.0842 0007940 348.4790 200.2599  1.00271003 41971
DIRECTV 14              
1 40333U 14078B   26154.90380933 -.00000113  00000+0  00000+0 0  9990
2 40333   0.0105 330.7434 0000221 173.7364 334.0187  1.00271536 41917
YAMAL 401               
1 40345U 14082A   26154.94125999  .00000000  00000+0  00000+0 0  9995
2 40345   0.0169 321.2654 0000046  80.9920 278.9408  1.00272851 41789
ASTRA 2G                
1 40364U 14089A   26154.92897182  .00000162  00000+0  00000+0 0  9990
2 40364   0.0474   1.9916 0005248  56.5490 196.4841  1.00269306 41834
FENGYUN 2G              
1 40367U 14090A   26154.80052208 -.00000292  00000+0  00000+0 0  9999
2 40367   5.6052  72.9774 0003441 153.7233  53.2439  1.00279146 41867
MUOS-3                  
1 40374U 15002A   26154.92037200 -.00000118  00000+0  00000+0 0  9996
2 40374   4.4962  43.4674 0051529 178.7572 346.0427  1.00272310 41458
INMARSAT 5-F2           
1 40384U 15005A   26154.84121437 -.00000273  00000+0  00000+0 0  9999
2 40384   0.0178 358.3891 0000655 188.3532 313.3768  1.00272434 40862
ABS-3A                  
1 40424U 15010A   26154.78021080 -.00000015  00000+0  00000+0 0  9990
2 40424   0.0206  67.4432 0001672 324.0968 138.5804  1.00269620 41244
EUTELSAT 115 WEST B     
1 40425U 15010B   26154.90068932 -.00000013  00000+0  00000+0 0  9990
2 40425   0.0080 156.2356 0000380 132.5008 172.9635  1.00272638 41268
EXPRESS-AM7             
1 40505U 15012A   26154.86001911  .00000163  00000+0  00000+0 0  9995
2 40505   0.0164   4.9013 0003355  73.6463 163.3625  1.00272001 40877
BEIDOU-3S IGSO-1S       
1 40549U 15019A   26154.87108398 -.00000164  00000+0  00000+0 0  9990
2 40549  49.2213 295.6213 0038494 191.1766 171.6670  1.00254002 40941
THOR 7                  
1 40613U 15022A   26154.92331868  .00000000  00000+0  00000+0 0  9990
2 40613   0.0092 323.3329 0002831 108.2147 152.5723  1.00270770 40686
TURKMENALEM52E/MONACOSAT
1 40617U 15023A   26154.93371995  .00000116  00000+0  00000+0 0  9999
2 40617   0.0401  77.2568 0003188 353.4125 209.8687  1.00271795 40717
DIRECTV 15              
1 40663U 15026A   26154.90302933 -.00000090  00000+0  00000+0 0  9998
2 40663   0.0174 358.7956 0000142  40.9515  74.8062  1.00268295 40337
SKY MEXICO-1            
1 40664U 15026B   26154.90779601 -.00000222  00000+0  00000+0 0  9996
2 40664   0.0176 355.1912 0002375  95.8520  49.3222  1.00271138 40322
METEOSAT-11 (MSG-4)     
1 40732U 15034A   26154.92531203  .00000074  00000+0  00000+0 0  9991
2 40732   3.1692  71.1826 0001628   3.4772 160.1821  1.00276165  7086
STAR ONE C4             
1 40733U 15034B   26154.90952935 -.00000253  00000+0  00000+0 0  9999
2 40733   0.0216 342.1959 0002628  83.6084  83.9979  1.00271062 39880
WGS F7 (USA 263)        
1 40746U 15036A   26154.88682258  .00000029  00000+0  00000+0 0  9990
2 40746   0.0036 355.0968 0000220 330.3666  61.1161  1.00269653 39739
INTELSAT 34 (IS-34)     
1 40874U 15039A   26154.91247603 -.00000273  00000+0  00000+0 0  9992
2 40874   0.0092 337.4190 0000344  48.3189 139.6288  1.00270144 39500
EUTELSAT 8 WEST B       
1 40875U 15039B   26154.92184535 -.00000053  00000+0  00000+0 0  9994
2 40875   0.0646 346.0275 0003839  83.9161 146.3034  1.00272095 39526
GSAT-6                  
1 40880U 15041A   26154.86844917 -.00000149  00000+0  00000+0 0  9999
2 40880   1.8859  82.7528 0003351 346.1960 218.5349  1.00272158 39466
INMARSAT 5-F3           
1 40882U 15042A   26154.81642759  .00000063  00000+0  00000+0 0  9991
2 40882   0.0167 344.9315 0000530  90.7082 290.1786  1.00273199 39435
MUOS-4                  
1 40887U 15044A   26154.79557360 -.00000083  00000+0  00000+0 0  9991
2 40887   4.3048  42.1594 0059821   4.5263 207.0014  1.00272659 39422
TJS-1                   
1 40892U 15046A   26154.88283590 -.00000143  00000+0  00000+0 0  9997
2 40892   0.2888  85.0192 0005950 352.0577 288.1191  1.00273535 39439
EXPRESS-AM8             
1 40895U 15048A   26154.92063200 -.00000099  00000+0  00000+0 0  9991
2 40895   0.0142 284.3694 0000236 134.9867 150.4447  1.00271826 39217
BEIDOU-3S IGSO-2S       
1 40938U 15053A   26154.75511061 -.00000130  00000+0  00000+0 0  9995
2 40938  49.2433 258.9424 0064930 192.0731 168.8525  1.00263064 39223
SKY MUSTER 1 (NBN1A)    
1 40940U 15054A   26154.87988922  .00000000  00000+0  00000+0 0  9991
2 40940   0.0240 335.5734 0001943 112.2881 261.4631  1.00270472 39126
ARSAT 2                 
1 40941U 15054B   26154.90736267 -.00000213  00000+0  00000+0 0  9996
2 40941   0.0376  61.0696 0002285   1.4986  75.4587  1.00271851 39170
MORELOS 3               
1 40946U 15056A   26154.90103598 -.00000032  00000+0  00000+0 0  9997
2 40946   3.1760  14.7153 0001864   2.8466  86.0686  1.00271451 39151
APSTAR-9                
1 40982U 15059A   26154.95148670 -.00000253  00000+0  00000+0 0  9990
2 40982   0.0169 332.0322 0002041 204.8931 200.0361  1.00272224 38980
TURKSAT 4B              
1 40984U 15060A   26154.93328662  .00000126  00000+0  00000+0 0  9991
2 40984   0.0187 334.0261 0002464  98.1515 206.2053  1.00275337 38969
